[{"OBJECT_NAME":"TRANSPORTER-14 OBJECT D","OBJECT_ID":"2025-135D","EPOCH":"2026-03-09T20:39:49.544640","MEAN_MOTION":15.23890173,"ECCENTRICITY":0.00054537,"INCLINATION":97.459,"RA_OF_ASC_NODE":185.3159,"ARG_OF_PERICENTER":147.9892,"MEAN_ANOMALY":212.1678,"EPHEMERIS_TYPE":0,"CLASSIFICATION_TYPE":"U","NORAD_CAT_ID":64531,"ELEMENT_SET_NO":999,"REV_AT_EPOCH":3978,"BSTAR":0.00064565207,"MEAN_MOTION_DOT":0.00015541,"MEAN_MOTION_DDOT":0},{"OBJECT_NAME":"HOTSAT-1","OBJECT_ID":"2023-084Y","EPOCH":"2026-03-09T22:00:57.183264","MEAN_MOTION":15.22033615,"ECCENTRICITY":3.707e-5,"INCLINATION":97.6057,"RA_OF_ASC_NODE":201.9858,"ARG_OF_PERICENTER":39.1931,"MEAN_ANOMALY":320.9331,"EPHEMERIS_TYPE":0,"CLASSIFICATION_TYPE":"U","NORAD_CAT_ID":56954,"ELEMENT_SET_NO":999,"REV_AT_EPOCH":15199,"BSTAR":0.00029593923,"MEAN_MOTION_DOT":6.692e-5,"MEAN_MOTION_DDOT":0}]
